<?xml version="1.0" encoding="UTF-8"?>
<ndm xmlns:xsi="http://www.w3.org/2001/XMLSchema-instance" xsi:noNamespaceSchemaLocation="https://sanaregistry.org/r/ndmxml_unqualified/ndmxml-2.0.0-master-2.0.xsd">
<omm id="CCSDS_OMM_VERS" version="2.0">
<header><CREATION_DATE/><ORIGINATOR/></header><body><segment><metadata><OBJECT_NAME>GLOBALSTAR M057</OBJECT_NAME><OBJECT_ID>1999-058A</OBJECT_ID><CENTER_NAME>EARTH</CENTER_NAME><REF_FRAME>TEME</REF_FRAME><TIME_SYSTEM>UTC</TIME_SYSTEM><MEAN_ELEMENT_THEORY>SGP4</MEAN_ELEMENT_THEORY></metadata><data><meanElements><EPOCH>2025-03-17T15:11:38.881824</EPOCH><MEAN_MOTION>12.24815849</MEAN_MOTION><ECCENTRICITY>.0002878</ECCENTRICITY><INCLINATION>51.9968</INCLINATION><RA_OF_ASC_NODE>248.0336</RA_OF_ASC_NODE><ARG_OF_PERICENTER>170.5547</ARG_OF_PERICENTER><MEAN_ANOMALY>189.5357</MEAN_ANOMALY></meanElements><tleParameters><EPHEMERIS_TYPE>0</EPHEMERIS_TYPE><CLASSIFICATION_TYPE>U</CLASSIFICATION_TYPE><NORAD_CAT_ID>25943</NORAD_CAT_ID><ELEMENT_SET_NO>999</ELEMENT_SET_NO><REV_AT_EPOCH>15571</REV_AT_EPOCH><BSTAR>.11717E-3</BSTAR><MEAN_MOTION_DOT>-.8E-6</MEAN_MOTION_DOT><MEAN_MOTION_DDOT>0</MEAN_MOTION_DDOT></tleParameters></data></segment></body></omm>
<omm id="CCSDS_OMM_VERS" version="2.0">
<header><CREATION_DATE/><ORIGINATOR/></header><body><segment><metadata><OBJECT_NAME>GLOBALSTAR M059</OBJECT_NAME><OBJECT_ID>1999-058B</OBJECT_ID><CENTER_NAME>EARTH</CENTER_NAME><REF_FRAME>TEME</REF_FRAME><TIME_SYSTEM>UTC</TIME_SYSTEM><MEAN_ELEMENT_THEORY>SGP4</MEAN_ELEMENT_THEORY></metadata><data><meanElements><EPOCH>2025-03-17T19:45:31.841280</EPOCH><MEAN_MOTION>11.99974771</MEAN_MOTION><ECCENTRICITY>.0000702</ECCENTRICITY><INCLINATION>52.0001</INCLINATION><RA_OF_ASC_NODE>94.3396</RA_OF_ASC_NODE><ARG_OF_PERICENTER>134.0883</ARG_OF_PERICENTER><MEAN_ANOMALY>38.1498</MEAN_ANOMALY></meanElements><tleParameters><EPHEMERIS_TYPE>0</EPHEMERIS_TYPE><CLASSIFICATION_TYPE>U</CLASSIFICATION_TYPE><NORAD_CAT_ID>25944</NORAD_CAT_ID><ELEMENT_SET_NO>999</ELEMENT_SET_NO><REV_AT_EPOCH>56307</REV_AT_EPOCH><BSTAR>.20707E-3</BSTAR><MEAN_MOTION_DOT>-.69E-6</MEAN_MOTION_DOT><MEAN_MOTION_DDOT>0</MEAN_MOTION_DDOT></tleParameters></data></segment></body></omm>
<omm id="CCSDS_OMM_VERS" version="2.0">
<header><CREATION_DATE/><ORIGINATOR/></header><body><segment><metadata><OBJECT_NAME>GLOBALSTAR M031</OBJECT_NAME><OBJECT_ID>1999-058D</OBJECT_ID><CENTER_NAME>EARTH</CENTER_NAME><REF_FRAME>TEME</REF_FRAME><TIME_SYSTEM>UTC</TIME_SYSTEM><MEAN_ELEMENT_THEORY>SGP4</MEAN_ELEMENT_THEORY></metadata><data><meanElements><EPOCH>2025-03-17T22:19:32.203776</EPOCH><MEAN_MOTION>12.16031008</MEAN_MOTION><ECCENTRICITY>.0001639</ECCENTRICITY><INCLINATION>51.9997</INCLINATION><RA_OF_ASC_NODE>356.1493</RA_OF_ASC_NODE><ARG_OF_PERICENTER>13.7803</ARG_OF_PERICENTER><MEAN_ANOMALY>63.7411</MEAN_ANOMALY></meanElements><tleParameters><EPHEMERIS_TYPE>0</EPHEMERIS_TYPE><CLASSIFICATION_TYPE>U</CLASSIFICATION_TYPE><NORAD_CAT_ID>25946</NORAD_CAT_ID><ELEMENT_SET_NO>999</ELEMENT_SET_NO><REV_AT_EPOCH>15344</REV_AT_EPOCH><BSTAR>.89027E-3</BSTAR><MEAN_MOTION_DOT>-.3E-7</MEAN_MOTION_DOT><MEAN_MOTION_DDOT>0</MEAN_MOTION_DDOT></tleParameters></data></segment></body></omm>
<omm id="CCSDS_OMM_VERS" version="2.0">
<header><CREATION_DATE/><ORIGINATOR/></header><body><segment><metadata><OBJECT_NAME>GLOBALSTAR M039</OBJECT_NAME><OBJECT_ID>1999-062A</OBJECT_ID><CENTER_NAME>EARTH</CENTER_NAME><REF_FRAME>TEME</REF_FRAME><TIME_SYSTEM>UTC</TIME_SYSTEM><MEAN_ELEMENT_THEORY>SGP4</MEAN_ELEMENT_THEORY></metadata><data><meanElements><EPOCH>2025-03-17T15:10:45.061536</EPOCH><MEAN_MOTION>12.62320973</MEAN_MOTION><ECCENTRICITY>.0003343</ECCENTRICITY><INCLINATION>51.9837</INCLINATION><RA_OF_ASC_NODE>187.5736</RA_OF_ASC_NODE><ARG_OF_PERICENTER>140.1674</ARG_OF_PERICENTER><MEAN_ANOMALY>219.9439</MEAN_ANOMALY></meanElements><tleParameters><EPHEMERIS_TYPE>0</EPHEMERIS_TYPE><CLASSIFICATION_TYPE>U</CLASSIFICATION_TYPE><NORAD_CAT_ID>25961</NORAD_CAT_ID><ELEMENT_SET_NO>999</ELEMENT_SET_NO><REV_AT_EPOCH>16865</REV_AT_EPOCH><BSTAR>.26936E-3</BSTAR><MEAN_MOTION_DOT>-.55E-6</MEAN_MOTION_DOT><MEAN_MOTION_DDOT>0</MEAN_MOTION_DDOT></tleParameters></data></segment></body></omm>
<omm id="CCSDS_OMM_VERS" version="2.0">
<header><CREATION_DATE/><ORIGINATOR/></header><body><segment><metadata><OBJECT_NAME>GLOBALSTAR M034</OBJECT_NAME><OBJECT_ID>1999-062B</OBJECT_ID><CENTER_NAME>EARTH</CENTER_NAME><REF_FRAME>TEME</REF_FRAME><TIME_SYSTEM>UTC</TIME_SYSTEM><MEAN_ELEMENT_THEORY>SGP4</MEAN_ELEMENT_THEORY></metadata><data><meanElements><EPOCH>2025-03-17T22:53:32.589024</EPOCH><MEAN_MOTION>11.79445765</MEAN_MOTION><ECCENTRICITY>.0013629</ECCENTRICITY><INCLINATION>51.9853</INCLINATION><RA_OF_ASC_NODE>248.5427</RA_OF_ASC_NODE><ARG_OF_PERICENTER>225.3751</ARG_OF_PERICENTER><MEAN_ANOMALY>298.5460</MEAN_ANOMALY></meanElements><tleParameters><EPHEMERIS_TYPE>0</EPHEMERIS_TYPE><CLASSIFICATION_TYPE>U</CLASSIFICATION_TYPE><NORAD_CAT_ID>25962</NORAD_CAT_ID><ELEMENT_SET_NO>999</ELEMENT_SET_NO><REV_AT_EPOCH>12762</REV_AT_EPOCH><BSTAR>.19816E-3</BSTAR><MEAN_MOTION_DOT>-.68E-6</MEAN_MOTION_DOT><MEAN_MOTION_DDOT>0</MEAN_MOTION_DDOT></tleParameters></data></segment></body></omm>
<omm id="CCSDS_OMM_VERS" version="2.0">
<header><CREATION_DATE/><ORIGINATOR/></header><body><segment><metadata><OBJECT_NAME>GLOBALSTAR M029</OBJECT_NAME><OBJECT_ID>1999-062C</OBJECT_ID><CENTER_NAME>EARTH</CENTER_NAME><REF_FRAME>TEME</REF_FRAME><TIME_SYSTEM>UTC</TIME_SYSTEM><MEAN_ELEMENT_THEORY>SGP4</MEAN_ELEMENT_THEORY></metadata><data><meanElements><EPOCH>2025-03-17T21:24:55.514880</EPOCH><MEAN_MOTION>11.99892555</MEAN_MOTION><ECCENTRICITY>.0002133</ECCENTRICITY><INCLINATION>51.9838</INCLINATION><RA_OF_ASC_NODE>342.2712</RA_OF_ASC_NODE><ARG_OF_PERICENTER>311.6625</ARG_OF_PERICENTER><MEAN_ANOMALY>145.8474</MEAN_ANOMALY></meanElements><tleParameters><EPHEMERIS_TYPE>0</EPHEMERIS_TYPE><CLASSIFICATION_TYPE>U</CLASSIFICATION_TYPE><NORAD_CAT_ID>25963</NORAD_CAT_ID><ELEMENT_SET_NO>999</ELEMENT_SET_NO><REV_AT_EPOCH>15816</REV_AT_EPOCH><BSTAR>.25453E-3</BSTAR><MEAN_MOTION_DOT>-.66E-6</MEAN_MOTION_DOT><MEAN_MOTION_DDOT>0</MEAN_MOTION_DDOT></tleParameters></data></segment></body></omm>
<omm id="CCSDS_OMM_VERS" version="2.0">
<header><CREATION_DATE/><ORIGINATOR/></header><body><segment><metadata><OBJECT_NAME>GLOBALSTAR M061</OBJECT_NAME><OBJECT_ID>1999-062D</OBJECT_ID><CENTER_NAME>EARTH</CENTER_NAME><REF_FRAME>TEME</REF_FRAME><TIME_SYSTEM>UTC</TIME_SYSTEM><MEAN_ELEMENT_THEORY>SGP4</MEAN_ELEMENT_THEORY></metadata><data><meanElements><EPOCH>2025-03-17T21:19:03.592992</EPOCH><MEAN_MOTION>11.76772055</MEAN_MOTION><ECCENTRICITY>.0006073</ECCENTRICITY><INCLINATION>51.9789</INCLINATION><RA_OF_ASC_NODE>71.5325</RA_OF_ASC_NODE><ARG_OF_PERICENTER>152.2662</ARG_OF_PERICENTER><MEAN_ANOMALY>232.9826</MEAN_ANOMALY></meanElements><tleParameters><EPHEMERIS_TYPE>0</EPHEMERIS_TYPE><CLASSIFICATION_TYPE>U</CLASSIFICATION_TYPE><NORAD_CAT_ID>25964</NORAD_CAT_ID><ELEMENT_SET_NO>999</ELEMENT_SET_NO><REV_AT_EPOCH>11043</REV_AT_EPOCH><BSTAR>.28645E-3</BSTAR><MEAN_MOTION_DOT>-.63E-6</MEAN_MOTION_DOT><MEAN_MOTION_DDOT>0</MEAN_MOTION_DDOT></tleParameters></data></segment></body></omm>

</ndm>
